{
  "type": "FeatureCollection",
  "features": [
    {
      "type": "Feature",
      "properties": {
        "norad_id": 29268,
        "name": "ARIRANG-2 (KOMPSAT-2)",
        "group": "resource",
        "lat": 79.02751236968058,
        "lon": 33.230800453170325,
        "alt_km": 676.801517521716,
        "timestamp": "2025-12-05T04:52:14.978413+00:00",
        "meta_object_name": "ARIRANG-2 (KOMPSAT-2)",
        "meta_object_id": "2006-031A",
        "meta_epoch": "2025-12-04T17:32:33.008640",
        "meta_mean_motion": 14.64482859,
        "meta_eccentricity": 0.0013913,
        "meta_inclination": 97.8264,
        "meta_ra_of_asc_node": 167.5943,
        "meta_arg_of_pericenter": 335.6752,
        "meta_mean_anomaly": 154.8625,
        "meta_ephemeris_type": 0,
        "meta_classification_type": "U",
        "meta_norad_cat_id": 29268,
        "meta_element_set_no": 999,
        "meta_rev_at_epoch": 3301,
        "meta_bstar": 0.00015459,
        "meta_mean_motion_dot": 7.75e-06,
        "meta_mean_motion_ddot": 0,
        "tle_line1": "1 29268U 06031A   25338.73093760  .00000775  00000+0  15459-3 0  9998",
        "tle_line2": "2 29268  97.8264 167.5943 0013913 335.6752 154.8625 14.64482859 33017"
      },
      "geometry": {
        "type": "Point",
        "coordinates": [
          33.230800453170325,
          79.02751236968058
        ]
      }
    },
    {
      "type": "Feature",
      "properties": {
        "norad_id": 29709,
        "name": "LAPAN-TUBSAT",
        "group": "resource",
        "lat": 1.4292059462404452,
        "lon": 149.40900610324732,
        "alt_km": 613.0482875052257,
        "timestamp": "2025-12-05T04:52:14.978427+00:00",
        "meta_object_name": "LAPAN-TUBSAT",
        "meta_object_id": "2007-001A",
        "meta_epoch": "2025-12-04T18:22:22.651680",
        "meta_mean_motion": 14.85652056,
        "meta_eccentricity": 0.0013617,
        "meta_inclination": 98.1252,
        "meta_ra_of_asc_node": 328.7584,
        "meta_arg_of_pericenter": 97.7615,
        "meta_mean_anomaly": 262.5146,
        "meta_ephemeris_type": 0,
        "meta_classification_type": "U",
        "meta_norad_cat_id": 29709,
        "meta_element_set_no": 999,
        "meta_rev_at_epoch": 2228,
        "meta_bstar": 0.00015249,
        "meta_mean_motion_dot": 1.266e-05,
        "meta_mean_motion_ddot": 0,
        "tle_line1": "1 29709U 07001A   25338.76553995  .00001266  00000+0  15249-3 0  9993",
        "tle_line2": "2 29709  98.1252 328.7584 0013617  97.7615 262.5146 14.85652056 22288"
      },
      "geometry": {
        "type": "Point",
        "coordinates": [
          149.40900610324732,
          1.4292059462404452
        ]
      }
    },
    {
      "type": "Feature",
      "properties": {
        "norad_id": 31113,
        "name": "HAIYANG-1B",
        "group": "resource",
        "lat": 72.38265360943508,
        "lon": 171.27166509145064,
        "alt_km": 774.3942830658261,
        "timestamp": "2025-12-05T04:52:14.978437+00:00",
        "meta_object_name": "HAIYANG-1B",
        "meta_object_id": "2007-010A",
        "meta_epoch": "2025-12-04T13:16:37.797600",
        "meta_mean_motion": 14.30960867,
        "meta_eccentricity": 0.0014555,
        "meta_inclination": 98.3307,
        "meta_ra_of_asc_node": 323.1699,
        "meta_arg_of_pericenter": 60.6668,
        "meta_mean_anomaly": 299.5967,
        "meta_ephemeris_type": 0,
        "meta_classification_type": "U",
        "meta_norad_cat_id": 31113,
        "meta_element_set_no": 999,
        "meta_rev_at_epoch": 97279,
        "meta_bstar": 0.00011265,
        "meta_mean_motion_dot": 2.55e-06,
        "meta_mean_motion_ddot": 0,
        "tle_line1": "1 31113U 07010A   25338.55321525  .00000255  00000+0  11265-3 0  9995",
        "tle_line2": "2 31113  98.3307 323.1699 0014555  60.6668 299.5967 14.30960867972791"
      },
      "geometry": {
        "type": "Point",
        "coordinates": [
          171.27166509145064,
          72.38265360943508
        ]
      }
    },
    {
      "type": "Feature",
      "properties": {
        "norad_id": 31598,
        "name": "COSMO-SKYMED 1",
        "group": "resource",
        "lat": -41.57080498871242,
        "lon": -22.50632965542736,
        "alt_km": 587.606944164726,
        "timestamp": "2025-12-05T04:52:14.978447+00:00",
        "meta_object_name": "COSMO-SKYMED 1",
        "meta_object_id": "2007-023A",
        "meta_epoch": "2025-12-04T18:14:52.213056",
        "meta_mean_motion": 14.95675823,
        "meta_eccentricity": 0.000131,
        "meta_inclination": 97.8837,
        "meta_ra_of_asc_node": 164.1078,
        "meta_arg_of_pericenter": 79.8247,
        "meta_mean_anomaly": 280.3121,
        "meta_ephemeris_type": 0,
        "meta_classification_type": "U",
        "meta_norad_cat_id": 31598,
        "meta_element_set_no": 999,
        "meta_rev_at_epoch": 71,
        "meta_bstar": 0.00069767,
        "meta_mean_motion_dot": 7.706e-05,
        "meta_mean_motion_ddot": 0,
        "tle_line1": "1 31598U 07023A   25338.76032654  .00007706  00000+0  69767-3 0  9999",
        "tle_line2": "2 31598  97.8837 164.1078 0001310  79.8247 280.3121 14.95675823   714"
      },
      "geometry": {
        "type": "Point",
        "coordinates": [
          -22.50632965542736,
          -41.57080498871242
        ]
      }
    },
    {
      "type": "Feature",
      "properties": {
        "norad_id": 31698,
        "name": "TERRASAR-X",
        "group": "resource",
        "lat": -36.453801595407214,
        "lon": -9.763554252673117,
        "alt_km": 515.3766939334273,
        "timestamp": "2025-12-05T04:52:14.978457+00:00",
        "meta_object_name": "TERRASAR-X",
        "meta_object_id": "2007-026A",
        "meta_epoch": "2025-12-04T14:48:18.109728",
        "meta_mean_motion": 15.19148632,
        "meta_eccentricity": 0.0001896,
        "meta_inclination": 97.4444,
        "meta_ra_of_asc_node": 344.116,
        "meta_arg_of_pericenter": 81.1065,
        "meta_mean_anomaly": 279.0384,
        "meta_ephemeris_type": 0,
        "meta_classification_type": "U",
        "meta_norad_cat_id": 31698,
        "meta_element_set_no": 999,
        "meta_rev_at_epoch": 2368,
        "meta_bstar": 0.00014931,
        "meta_mean_motion_dot": 3.069e-05,
        "meta_mean_motion_ddot": 0,
        "tle_line1": "1 31698U 07026A   25338.61687627  .00003069  00000+0  14931-3 0  9994",
        "tle_line2": "2 31698  97.4444 344.1160 0001896  81.1065 279.0384 15.19148632 23687"
      },
      "geometry": {
        "type": "Point",
        "coordinates": [
          -9.763554252673117,
          -36.453801595407214
        ]
      }
    },
    {
      "type": "Feature",
      "properties": {
        "norad_id": 32060,
        "name": "WORLDVIEW-1 (WV-1)",
        "group": "resource",
        "lat": 2.623700469696625,
        "lon": -82.86812231361081,
        "alt_km": 494.9636796371233,
        "timestamp": "2025-12-05T04:52:14.978466+00:00",
        "meta_object_name": "WORLDVIEW-1 (WV-1)",
        "meta_object_id": "2007-041A",
        "meta_epoch": "2025-12-04T13:55:05.341152",
        "meta_mean_motion": 15.24480866,
        "meta_eccentricity": 7.6e-05,
        "meta_inclination": 97.3841,
        "meta_ra_of_asc_node": 96.1774,
        "meta_arg_of_pericenter": 96.507,
        "meta_mean_anomaly": 263.6254,
        "meta_ephemeris_type": 0,
        "meta_classification_type": "U",
        "meta_norad_cat_id": 32060,
        "meta_element_set_no": 999,
        "meta_rev_at_epoch": 1323,
        "meta_bstar": 0.00070212,
        "meta_mean_motion_dot": 0.00017205,
        "meta_mean_motion_ddot": 0,
        "tle_line1": "1 32060U 07041A   25338.57992293  .00017205  00000+0  70212-3 0  9999",
        "tle_line2": "2 32060  97.3841  96.1774 0000760  96.5070 263.6254 15.24480866 13230"
      },
      "geometry": {
        "type": "Point",
        "coordinates": [
          -82.86812231361081,
          2.623700469696625
        ]
      }
    },
    {
      "type": "Feature",
      "properties": {
        "norad_id": 32289,
        "name": "YAOGAN-3",
        "group": "resource",
        "lat": -50.39584633053076,
        "lon": 176.31400417565445,
        "alt_km": 606.4340088271429,
        "timestamp": "2025-12-05T04:52:14.978476+00:00",
        "meta_object_name": "YAOGAN-3",
        "meta_object_id": "2007-055A",
        "meta_epoch": "2025-12-04T18:09:56.181600",
        "meta_mean_motion": 14.89797943,
        "meta_eccentricity": 0.0001525,
        "meta_inclination": 97.837,
        "meta_ra_of_asc_node": 5.4545,
        "meta_arg_of_pericenter": 79.0492,
        "meta_mean_anomaly": 281.0897,
        "meta_ephemeris_type": 0,
        "meta_classification_type": "U",
        "meta_norad_cat_id": 32289,
        "meta_element_set_no": 999,
        "meta_rev_at_epoch": 97690,
        "meta_bstar": 0.00062156,
        "meta_mean_motion_dot": 5.911e-05,
        "meta_mean_motion_ddot": 0,
        "tle_line1": "1 32289U 07055A   25338.75690025  .00005911  00000+0  62156-3 0  9994",
        "tle_line2": "2 32289  97.8370   5.4545 0001525  79.0492 281.0897 14.89797943976904"
      },
      "geometry": {
        "type": "Point",
        "coordinates": [
          176.31400417565445,
          -50.39584633053076
        ]
      }
    }
  ]
}